STARLINK-30469          
1 57896U 23146F   26048.07098590 -.00000862  00000+0 -48766-4 0  9991
2 57896  43.0024  65.4676 0001179 255.1412 104.9299 15.02525407133969
STARLINK-30474          
1 57897U 23146G   26048.39780676  .00000578  00000+0  57881-4 0  9990
2 57897  43.0048  63.6235 0001212 256.8280 103.2427 15.02535879134012
STARLINK-30479          
1 57898U 23146H   26048.06430763  .00001271  00000+0  10912-3 0  9998
2 57898  43.0041  65.4198 0001327 274.1928  85.8762 15.02536915133965
STARLINK-30481          
1 57899U 23146J   26048.06098074  .00000662  00000+0  64075-4 0  9997
2 57899  43.0032  65.3935 0001415 267.2100  92.8580 15.02538370133960
STARLINK-30457          
1 57900U 23146K   26048.37782883  .00001018  00000+0  90436-4 0  9998
2 57900  43.0036  63.4750 0001341 269.1514  90.9175 15.02536815132958
STARLINK-30472          
1 57901U 23146L   26048.09415783  .00000112  00000+0  23389-4 0  9997
2 57901  43.0020  64.7764 0000833 260.7424  99.3324 15.02536067132917
STARLINK-30462          
1 57902U 23146M   26048.45318572 -.00000601  00000+0 -29442-4 0  9997
2 57902  43.0028  63.1771 0001123 279.1471  80.9244 15.02535371133988
STARLINK-30449          
1 57903U 23146N   26048.09083267  .00005740  00000+0  43996-3 0  9994
2 57903  43.0037  64.7545 0000353 257.7990 102.2813 15.02505171132914
STARLINK-30466          
1 57904U 23146P   26048.11746879  .00000251  00000+0  33686-4 0  9991
2 57904  43.0045  64.9584 0001435 272.1741  87.8937 15.02536621132915
STARLINK-30428          
1 57906U 23146R   26048.38005195 -.00000823  00000+0 -45833-4 0  9995
2 57906  43.0031  63.4872 0001057 262.0899  97.9824 15.02532319132959
STARLINK-30482          
1 57907U 23146S   26048.11081263  .00000055  00000+0  19151-4 0  9996
2 57907  43.0046  64.9085 0001415 272.6245  87.4435 15.02531853132929
STARLINK-30464          
1 57908U 23146T   26048.10405942  .00002593  00000+0  20666-3 0  9991
2 57908  43.0038  64.8568 0001346 272.5624  87.5064 15.02587042132918
STARLINK-30463          
1 57909U 23146U   26048.10746370  .00007944  00000+0  60289-3 0  9995
2 57909  42.9966  64.8727 0001922 165.4089 194.6809 15.02509238132917
STARLINK-30453          
1 57910U 23146V   26048.03433431  .00001373  00000+0  11669-3 0  9998
2 57910  43.0038  65.1920 0001412 270.0728  89.9953 15.02545302132904
STARLINK-30478          
1 57911U 23146W   26048.35231112  .00002948  00000+0  23321-3 0  9993
2 57911  43.0016  63.2715 0001348 256.9173 103.1519 15.02538790134011
STARLINK-30477          
1 57912U 23146X   26048.09749343  .00001469  00000+0  12382-3 0  9997
2 57912  43.0050  64.8083 0001179 261.8372  98.2336 15.02524366133972
STARLINK-30450          
1 57913U 23147A   26048.41640429  .00001572  00000+0  13137-3 0  9994
2 57913  43.0034  76.6187 0001392 279.1900  80.8785 15.02543559133539
STARLINK-30483          
1 57914U 23147B   26048.71095291  .00000781  00000+0  37928-4 0  9995
2 57914  43.0012 292.4563 0001086 254.0236 106.0496 15.27568131135257
STARLINK-30454          
1 57915U 23147C   26048.40975049  .00002010  00000+0  16387-3 0  9992
2 57915  43.0065  76.5681 0001732 265.3962  94.6683 15.02524055133536
STARLINK-30501          
1 57917U 23147E   26048.14049299 -.00000088  00000+0  85608-5 0  9992
2 57917  43.0012  77.9841 0001136 257.3116 102.7599 15.02539456133520
STARLINK-30499          
1 57918U 23147F   26048.69307108  .00007121  00000+0  26794-3 0  9992
2 57918  43.0003 293.1473 0001320 273.2630  86.8070 15.27591825135272
STARLINK-30496          
1 57919U 23147G   26048.13383712  .00000042  00000+0  18179-4 0  9991
2 57919  43.0045  77.9372 0001264 263.0938  96.9760 15.02537919133521
STARLINK-30485          
1 57920U 23147H   26048.13051230  .00000514  00000+0  53106-4 0  9993
2 57920  43.0032  77.9136 0001289 274.2362  85.8332 15.02533345133520
STARLINK-30492          
1 57921U 23147J   26048.12718204 -.00002154  00000+0 -14442-3 0  9997
2 57921  43.0017  77.8826 0001717 293.8406  66.2256 15.02529002133490
STARLINK-30440          
1 57923U 23147L   26048.12384802  .00000031  00000+0  17336-4 0  9998
2 57923  42.9997  77.8587 0000727 252.9858 107.0904 15.02537073133523
STARLINK-30487          
1 57924U 23147M   26048.10386757 -.00000064  00000+0  10302-4 0  9991
2 57924  43.0020  77.6955 0001104 271.8681  88.2035 15.02536322133525
STARLINK-30452          
1 57925U 23147N   26048.12052630 -.00000659  00000+0 -33722-4 0  9996
2 57925  43.0051  77.8335 0001521 277.2967  82.7703 15.02532628133496
STARLINK-30468          
1 57926U 23147P   26048.11719044 -.00000445  00000+0 -17904-4 0  9992
2 57926  43.0035  77.8161 0001025 251.5617 108.5113 15.02535080133499
STARLINK-30448          
1 57928U 23147R   26048.11052962  .00000048  00000+0  18602-4 0  9996
2 57928  42.9992  77.7574 0001062 228.7382 131.3369 15.02548272133498
STARLINK-30476          
1 57930U 23147T   26047.44212312  .00064965  00000+0  19595-2 0  9999
2 57930  42.9960  33.1801 0015371  88.4378 271.8237 15.33325318133952
STARLINK-30488          
1 57931U 23147U   26048.10718987 -.00000601  00000+0 -29383-4 0  9990
2 57931  43.0020  77.7354 0001434 273.6174  86.4505 15.02553934133520
STARLINK-30471          
1 57932U 23147V   26048.15702658  .00002010  00000+0  16387-3 0  9997
2 57932  43.0030  77.2493 0001384 275.4589  84.6096 15.02526251133500
STARLINK-30461          
1 57933U 23147W   26048.10054071  .00000047  00000+0  18568-4 0  9994
2 57933  43.0027  77.6900 0001160 273.0350  87.0360 15.02538509133494
STARLINK-30712          
1 57935U 23148A   26048.70318898 -.00001124  00000+0 -25838-4 0  9990
2 57935  53.1596 117.0328 0001099 120.6107 239.5002 15.30194933135365
STARLINK-30716          
1 57936U 23148B   26048.60209500 -.00000179  00000+0  60774-5 0  9996
2 57936  53.1594 117.7351 0001145  85.7136 274.3996 15.30194385135340
STARLINK-30400          
1 57937U 23148C   26048.57572214 -.00000790  00000+0 -14568-4 0  9997
2 57937  53.1597 117.6196 0001116 104.8287 255.2837 15.30191508135344
STARLINK-30710          
1 57938U 23148D   26048.43252962 -.00000264  00000+0  32253-5 0  9995
2 57938  53.1600 108.3122 0001229  97.1974 262.9167 15.30196193135456
STARLINK-30714          
1 57939U 23148E   26048.47779322  .00001050  00000+0  47575-4 0  9999
2 57939  53.1576 118.3679 0001139  91.0976 269.0155 15.30185769135320
STARLINK-30711          
1 57940U 23148F   26048.47463113 -.00000263  00000+0  32387-5 0  9991
2 57940  53.1592 118.3680 0001282 115.0583 245.0551 15.30195569135325
STARLINK-30715          
1 57941U 23148G   26048.55470441 -.00002245  00000+0 -63711-4 0  9990
2 57941  53.1601 107.5083 0001397 110.0788 250.0363 15.30183917135481
STARLINK-30455          
1 57942U 23148H   26048.48095508 -.00000795  00000+0 -14735-4 0  9990
2 57942  53.1589 118.3535 0000953  89.8801 270.2309 15.30197212135325
STARLINK-30456          
1 57943U 23148J   26048.46831772 -.00002914  00000+0 -86342-4 0  9998
2 57943  53.1602 118.4035 0001321 114.0220 246.0919 15.30179192135329
STARLINK-30708          
1 57944U 23148K   26048.51357707 -.00001224  00000+0 -29215-4 0  9995
2 57944  53.1615 117.9736 0000926  96.7278 263.3828 15.30194205135339
STARLINK-30705          
1 57945U 23148L   26048.45882067 -.00001193  00000+0 -28148-4 0  9990
2 57945  53.1608 118.3475 0001432 100.9180 259.1982 15.30193520135322
STARLINK-30704          
1 57946U 23148M   26048.74135193 -.00003369  00000+0 -10164-3 0  9999
2 57946  53.1606 194.1010 0001132  92.2909 267.8221 15.30214313134265
STARLINK-30706          
1 57947U 23148N   26048.53046177 -.00000575  00000+0 -72757-5 0  9994
2 57947  53.1598 118.0711 0001253  88.5726 271.5418 15.30193584135333
STARLINK-30707          
1 57949U 23148Q   26048.59261304 -.00001310  00000+0 -32126-4 0  9996
2 57949  53.1598 117.7515 0001228  84.1972 275.9168 15.30199794135340
STARLINK-30701          
1 57950U 23148R   26048.58627419 -.00001221  00000+0 -29096-4 0  9993
2 57950  53.1599 117.6960 0001276  80.1002 280.0143 15.30195300135348
STARLINK-30399          
1 57951U 23148S   26048.58205407 -.00000391  00000+0 -10739-5 0  9995
2 57951  53.1602 117.6714 0001236  88.6455 271.4687 15.30195245135347
STARLINK-30713          
1 57952U 23148T   26048.56623051 -.00001406  00000+0 -35376-4 0  9994
2 57952  53.1592 117.5934 0000941 100.2585 259.8522 15.30193243135340
STARLINK-30700          
1 57953U 23148U   26048.66956075 -.00001594  00000+0 -41725-4 0  9994
2 57953  53.1601 107.2004 0001171  89.3085 270.8050 15.30193099135498
STARLINK-30703          
1 57954U 23148V   26048.64320593  .00001751  00000+0  71223-4 0  9992
2 57954  53.1590 107.2856 0000944  83.9017 276.2092 15.30203626135497
STARLINK-30702          
1 57955U 23148W   26048.64744148 -.00000774  00000+0 -14029-4 0  9996
2 57955  53.1590 107.3038 0001185  89.4967 270.6170 15.30191222135497
STARLINK-30396          
1 57964U 23151A   26048.83335647  .00005957  00000+0  42521-3 0  9994
2 57964  43.0003  86.7408 0002207 268.8640 179.3281 15.05158152  5820
STARLINK-30524          
1 57965U 23151B   26048.45700676 -.00000359  00000+0 -11513-4 0  9992
2 57965  42.9992  88.4361 0001339 265.9474  94.1215 15.02534070132692
STARLINK-30521          
1 57966U 23151C   26048.13238825 -.00000610  00000+0 -30087-4 0  9997
2 57966  43.0016  90.2909 0001512 272.6493  87.4176 15.02530672132640
STARLINK-30528          
1 57967U 23151D   26048.12905385  .00000380  00000+0  43229-4 0  9993
2 57967  43.0010  90.2661 0001258 274.7457  85.3242 15.02535770132645
STARLINK-30495          
1 57968U 23151E   26048.15902091  .00001570  00000+0  13121-3 0  9997
2 57968  43.0023  90.4867 0001176 278.1444  81.9265 15.02543584132642
STARLINK-30494          
1 57970U 23151G   26048.72488578  .00000028  00000+0  79623-5 0  9990
2 57970  43.0118 303.9368 0002286 253.3139 106.7466 15.40697618134390
